24P/Schaumasse,e,11.5031,78.3163,58.4573,4.055345,0.1206875,0.70775158,243.5653,05/20.0/2023,2000,g  6.5,14.0
# From MPEC 2022-Y15
26P/Grigg-Skjellerup,e,22.4331,211.5415,2.1503,3.015453,0.1882241,0.64054994,318.7125,05/20.0/2023,2000,g 12.0,16.0
# From MPC 78188
27P/Crommelin,e,29.3765,250.6769,195.8516,9.180456,0.0354330,0.91912039,152.9448,05/20.0/2023,2000,g 12.0,8.0
# From MPEC 2023-FK0
28P/Neujmin,e,14.3099,346.3468,347.4690,6.981833,0.0534257,0.77353534,42.7013,05/20.0/2023,2000,g  8.5,6.0
# From MPEC 2023-K53
29P/Schwassmann-Wachmann,e,9.3626,312.4001,51.2877,6.049009,0.0662488,0.04459881,98.4669,05/20.0/2023,2000,g  4.0,4.0
# From MPEC 2023-CD7
30P/Reinmuth,e,8.0549,117.4295,9.4482,3.734817,0.1365526,0.51564640,297.8601,05/20.0/2023,2000,g  9.5,6.0
# From MPEC 2021-F20
31P/Schwassmann-Wachmann,e,4.5486,114.1048,17.8727,4.234920,0.1130931,0.19244921,160.2134,05/20.0/2023,2000,g 13.1,4.0
# From MPEC 2023-J29
32P/ComasSola,e,9.9153,54.5445,54.7193,4.559519,0.1012338,0.55641547,325.9470,05/20.0/2023,2000,g  6.5,8.0
# From MPEC 2023-J29
33P/Daniel,e,22.2939,66.2958,20.4498,4.088756,0.1192113,0.45187288,295.4407,05/20.0/2023,2000,g 10.0,12.0
# From  15, 452
35P/Herschel-Rigollet,e,65.180,356.673,29.002,28.5442,0.006463,0.9744313,0.000,02/20.1387/2092,2000,g  9.0,4.0
# From MPEC 2022-ED3
36P/Whipple,e,9.9525,181.8414,201.0720,4.137739,0.1171007,0.26902287,126.6963,05/20.0/2023,2000,g  8.5,6.0
# From MPEC 2021-F20
37P/Forbes,e,8.9502,314.5654,330.0921,3.462108,0.1530006,0.53298581,281.9308,05/20.0/2023,2000,g 13.8,4.0
# From MPEC 2018-S50
38P/Stephan-Oterma,e,18.3960,77.8921,359.5124,11.24072,0.0261525,0.85953479,43.1481,05/20.0/2023,2000,g  3.5,12.0
# From MPEC 2022-A21
39P/Oterma,e,1.5452,296.3717,102.4415,7.241834,0.0505745,0.21188744,357.4880,05/20.0/2023,2000,g  7.0,6.0
# From MPC100283
40P/Vaisala,e,11.4593,133.5541,47.5710,4.956338,0.0893229,0.63149112,278.8009,05/20.0/2023,2000,g  5.5,12.0
# From MPEC 2023-J29
41P/Tuttle-Giacobini-Kresak,e,9.2205,140.9882,62.2144,3.088165,0.1816156,0.65989824,45.1143,05/20.0/2023,2000,g 10.0,16.0
# From MPC 94283
42P/Neujmin,e,3.9906,150.1757,147.2169,4.874461,0.0915829,0.58446700,271.0965,05/20.0/2023,2000,g 13.0,6.0
# From MPEC 2023-J29
43P/Wolf-Harrington,e,9.3470,244.0309,224.2462,4.328038,0.1094630,0.43443506,270.5956,05/20.0/2023,2000,g  8.0,6.0
# From MPEC 2023-J29
44P/Reinmuth,e,5.8971,286.4273,58.0291,3.688297,0.1391442,0.42734121,54.5472,05/20.0/2023,2000,g  8.3,6.0
# From MPEC 2022-O01
45P/Honda-Mrkos-Pajdusakova,e,4.3232,87.6866,327.9283,3.055935,0.1844964,0.81768765,71.5867,05/20.0/2023,2000,g 13.5,8.0
# From MPEC 2023-J29
46P/Wirtanen,e,11.7493,82.1628,356.3270,3.091048,0.1813617,0.65870809,293.7782,05/20.0/2023,2000,g 14.0,6.0
# From MPEC 2023-J29
47P/Ashbrook-Jackson,e,13.0396,356.9164,357.7749,4.121622,0.1177882,0.31868718,255.0018,05/20.0/2023,2000,g  1.0,11.2
# From MPEC 2023-FK0
48P/Johnson,e,12.2003,110.0861,216.7488,3.501096,0.1504520,0.42707088,261.8350,05/20.0/2023,2000,g 10.0,6.0
# From MPEC 2023-J95
49P/Arend-Rigaux,e,19.0541,118.7914,332.9229,3.569306,0.1461600,0.59866356,258.8880,05/20.0/2023,2000,g 11.3,4.4
# From MPEC 2015-S97
50P/Arend,e,19.1013,355.1725,49.3573,4.087381,0.1192714,0.52966250,317.1999,05/20.0/2023,2000,g  9.5,6.0
# From MPEC 2023-J29
51P/Harrington,e,5.4266,83.6614,269.2457,3.706414,0.1381253,0.54337515,31.8717,05/20.0/2023,2000,g 10.0,8.0
# From NK 3014
51P-A/Harrington,e,5.4265,83.6615,269.2170,3.708087,0.1380318,0.54361374,31.4967,05/20.0/2023,2000,g 10.0,8.0
# From MPEC 2023-J29
51P-D/Harrington,e,5.4271,83.6497,269.2639,3.706775,0.1381051,0.54350494,31.8087,05/20.0/2023,2000,g 16.0,8.0
# From MPEC 2023-J29
52P/Harrington-Abell,e,10.2310,336.8222,139.5587,3.863592,0.1297828,0.54035367,76.8025,05/20.0/2023,2000,g 13.5,6.0
# From MPEC 2023-J29
53P/VanBiesbroeck,e,6.6075,148.8266,134.4839,5.433095,0.0778275,0.55033239,200.6453,05/20.0/2023,2000,g  7.7,4.8
# From MPC 89011
54P/de Vico-Swift-NEAT,e,6.0641,358.8092,1.9081,3.787950,0.1336896,0.42645099,296.7955,05/20.0/2023,2000,g  9.0,4.0
# From MPC 31070
55P/Tempel-Tuttle,e,162.5088,235.4212,172.4748,10.35528,0.0295775,0.90526603,273.5158,05/20.0/2023,2000,g  9.0,4.0
# From MPEC 2023-J29
56P/Slaughter-Burnham,e,8.1587,345.9734,44.0638,5.065821,0.0864429,0.50856903,215.3560,05/20.0/2023,2000,g  8.5,6.0
# From MPEC 2023-HD1
57P/duToit-Neujmin-Delporte,e,2.8524,188.7780,115.1306,3.443340,0.1542532,0.50082809,89.4462,05/20.0/2023,2000,g 13.7,4.0
# From MPEC 2023-J29
58P/Jackson-Neujmin,e,13.1072,159.0707,200.5317,4.088324,0.1192302,0.66265215,129.6383,05/20.0/2023,2000,g 15.5,6.0
# From MPEC 2023-A50
59P/Kearns-Kwee,e,9.3453,312.7813,127.5324,4.482787,0.1038441,0.47629438,177.0631,05/20.0/2023,2000,g  7.0,6.0
# From MPEC 2021-F20
60P/Tsuchinshan,e,3.5800,267.4347,216.9839,3.526309,0.1488413,0.53358813,241.9733,05/20.0/2023,2000,g 11.5,6.0
# From MPEC 2023-J29
61P/Shajn-Schaldach,e,5.9995,162.9612,221.6375,3.688719,0.1391204,0.42370957,28.9745,05/20.0/2023,2000,g  6.0,10.0
# From MPEC 2023-J29
62P/Tsuchinshan,e,4.7381,68.7038,47.2722,3.370544,0.1592773,0.62485926,325.0793,05/20.0/2023,2000,g  8.0,10.0
# From MPC 84320
63P/Wild,e,19.7111,358.0020,168.9401,5.617073,0.0740353,0.65003847,275.2156,05/20.0/2023,2000,g 10.5,6.0
# From MPEC 2023-A50
64P/Swift-Gehrels,e,8.9492,299.8889,97.1847,4.452536,0.1049042,0.68870620,173.7384,05/20.0/2023,2000,g  9.5,12.0
# From MPEC 2023-K53
65P/Gunn,e,9.1757,61.9828,213.8493,3.889557,0.1284854,0.24833289,262.4691,05/20.0/2023,2000,g  5.0,6.0
# From MPEC 2021-F20
66P/duToit,e,18.6388,21.7789,257.4866,6.070561,0.0658963,0.78568034,120.4946,05/20.0/2023,2000,g 15.0,4.0
# From MPEC 2023-J29
67P/Churyumov-Gerasimenko,e,3.8718,36.3291,22.1547,3.457527,0.1533048,0.64991477,86.4366,05/20.0/2023,2000,g 11.0,4.0
# From MPEC 2023-HD1
68P/Klemola,e,11.1107,175.0503,153.2555,4.959809,0.0892291,0.63702335,114.9426,05/20.0/2023,2000,g 12.6,4.0
# From MPEC 2023-A50
69P/Taylor,e,22.0492,104.8047,343.3985,3.883953,0.1287636,0.41401793,196.1250,05/20.0/2023,2000,g  9.5,12.0
# From MPEC 2023-G31
70P/Kojima,e,6.5983,119.2521,1.7911,3.677284,0.1397698,0.45400074,78.6767,05/20.0/2023,2000,g 11.0,6.0
# From MPEC 2023-K53
71P/Clark,e,9.4381,59.3927,209.0593,3.138440,0.1772692,0.49375703,20.7806,05/20.0/2023,2000,g  9.8,6.0
# From MPEC 2023-K53
72P/Denning-Fujikawa,e,10.9488,26.7008,346.7352,4.307116,0.1102616,0.81866953,357.0478,05/20.0/2023,2000,g 17.5,10.0
# From MPEC 2023-J29
73P/Schwassmann-Wachmann,e,11.2347,69.5778,199.5118,3.093815,0.1811184,0.68571386,48.3838,05/20.0/2023,2000,g 11.5,6.0
# From MPEC 2023-J29
73P-T/Schwassmann-Wachmann,e,11.2385,69.5829,199.4918,3.092560,0.1812286,0.68562628,48.6303,05/20.0/2023,2000,g  9.0,4.0
# From MPEC 2022-P18
73P-U/Schwassmann-Wachmann,e,11.0757,70.6481,199.8896,2.877080,0.2019650,0.66642110,54.1380,05/20.0/2023,2000,g 19.0,4.0
# From MPEC 2022-X67
73P-V/Schwassmann-Wachmann,e,11.2507,69.4556,199.3891,3.147266,0.1765241,0.69063003,47.2981,05/20.0/2023,2000,g 19.0,4.0
# From MPEC 2022-R15
73P-W/Schwassmann-Wachmann,e,11.6121,67.2657,198.7880,4.598706,0.0999426,0.78253848,26.7293,05/20.0/2023,2000,g 18.2,4.0
# From MPEC 2023-A50
73P-X/Schwassmann-Wachmann,e,11.2664,69.4489,199.4072,3.126512,0.1782847,0.68857858,47.7104,05/20.0/2023,2000,g 17.5,4.0
# From MPEC 2022-R15
73P-Y/Schwassmann-Wachmann,e,11.2049,69.7358,199.4838,3.035541,0.1863588,0.68031820,50.0641,05/20.0/2023,2000,g 17.4,4.0
# From MPEC 2022-P18
73P-BU/Schwassmann-Wachmann,e,11.0757,70.6481,199.8896,2.877080,0.2019650,0.66642110,54.1380,05/20.0/2023,2000,g 19.0,4.0
# From MPEC 2022-X67
73P-BV/Schwassmann-Wachmann,e,11.2507,69.4556,199.3891,3.147266,0.1765241,0.69063003,47.2981,05/20.0/2023,2000,g 19.0,4.0
# From MPEC 2022-R15
73P-BW/Schwassmann-Wachmann,e,11.6121,67.2657,198.7880,4.598706,0.0999426,0.78253848,26.7293,05/20.0/2023,2000,g 18.2,4.0
# From MPEC 2023-A50
73P-BX/Schwassmann-Wachmann,e,11.2664,69.4489,199.4072,3.126512,0.1782847,0.68857858,47.7104,05/20.0/2023,2000,g 17.5,4.0
# From MPEC 2022-R15
73P-BY/Schwassmann-Wachmann,e,11.2049,69.7358,199.4838,3.035541,0.1863588,0.68031820,50.0641,05/20.0/2023,2000,g 17.4,4.0
# From MPEC 2023-J95
74P/Smirnova-Chernykh,e,6.4308,54.0208,139.6691,4.693318,0.0969358,0.06944365,183.1969,05/20.0/2023,2000,g  5.0,6.0
# From MPEC 2022-K19
76P/West-Kohoutek-Ikemura,e,30.4869,84.1047,359.9368,3.470248,0.1524626,0.53887409,198.4139,05/20.0/2023,2000,g  8.0,12.0
# From MPEC 2023-K53
77P/Longmore,e,24.3187,14.7678,196.7279,3.623856,0.1428722,0.35186082,6.6993,05/20.0/2023,2000,g  7.0,8.0
# From MPEC 2021-O56
78P/Gehrels,e,6.2574,210.5194,192.6568,3.736647,0.1364523,0.46299837,205.5600,05/20.0/2023,2000,g  5.5,8.0
# From MPC 94675
79P/du Toit-Hartley,e,3.1487,280.5196,281.7884,2.943841,0.1951338,0.61919224,333.9766,05/20.0/2023,2000,g 16.0,4.0
# From MPEC 2023-K53
80P/Peters-Hartley,e,29.9233,259.7956,339.2425,4.023021,0.1221450,0.59847255,19.8065,05/20.0/2023,2000,g  9.0,8.0
# From MPEC 2023-K53
81P/Wild,e,3.2364,136.0977,41.6222,3.454301,0.1535196,0.53727467,23.8556,05/20.0/2023,2000,g  7.0,6.0
# From MPC133426
82P/Gehrels,e,1.1291,239.2453,226.4159,4.132996,0.1173023,0.12213848,210.2405,05/20.0/2023,2000,g 15.0,4.0
# From MPEC 2020-FB5
84P/Giclas,e,7.5502,108.1277,281.6554,3.549990,0.1473545,0.51608361,159.0734,05/20.0/2023,2000,g  9.5,8.0
# From MPEC 2022-YB4
86P/Wild,e,15.4761,72.2943,179.6882,3.606913,0.1438801,0.37249383,67.0194,05/20.0/2023,2000,g 11.0,6.0
# From MPEC 2020-SI8
87P/Bus,e,4.6191,184.1041,49.3969,4.040952,0.1213329,0.31028870,125.5532,05/20.0/2023,2000,g  7.2,10.0
# From MPEC 2023-J29
88P/Howell,e,4.3820,56.6683,235.9372,3.106427,0.1800165,0.56353041,173.8909,05/20.0/2023,2000,g 11.0,6.0
# From MPEC 2023-J29
89P/Russell,e,12.0720,41.3467,250.3952,3.753315,0.1355444,0.40805104,317.7685,05/20.0/2023,2000,g 11.5,6.0
# From MPEC 2022-K19
90P/Gehrels,e,9.6504,13.2042,29.0800,6.051349,0.0662103,0.51108989,142.8699,05/20.0/2023,2000,g  8.5,6.0
# From MPEC 2021-S45
